{"type": "FeatureCollection", "features": [ {"type": "Feature", "properties": {"norad_id": 35480, "name": "IRIDIUM 33 DEB", "group": "iridium-33-debris", "lat": -86.34021731601233, "lon": -63.76634076459951, "alt_km": 744.8180130354203, "timestamp": "2025-12-21T11:31:43.244206+00:00", "meta": {"OBJECT_NAME": "IRIDIUM 33 DEB", "OBJECT_ID": "1997-051QA", "EPOCH": "2025-12-15T08:30:57.118464", "MEAN_MOTION": 14.49774703, "ECCENTRICITY": 0.00160032, "INCLINATION": 86.3571, "RA_OF_ASC_NODE": 23.7786, "ARG_OF_PERICENTER": 97.0457, "MEAN_ANOMALY": 263.2568, "EPHEMERIS_TYPE": 0, "CLASSIFICATION_TYPE": "U", "NORAD_CAT_ID": 35480, "ELEMENT_SET_NO": 999, "REV_AT_EPOCH": 87069, "BSTAR": 0.00045738518, "MEAN_MOTION_DOT": 1.785e-05, "MEAN_MOTION_DDOT": 0}, "tle": {"line1": "1 35480U 97051QA  25349.35482776  .00001785  00000+0  45739-3 0  9998", "line2": "2 35480  86.3571  23.7786 0016003  97.0457 263.2568 14.49774703870695"}}, "geometry": {"type": "Point", "coordinates": [-63.76634076459951, -86.34021731601233]}}, {"type": "Feature", "properties": {"norad_id": 35484, "name": "IRIDIUM 33 DEB", "group": "iridium-33-debris", "lat": 0.6379801620036796, "lon": 168.613908730635, "alt_km": 570.3358403249813, "timestamp": "2025-12-21T11:31:43.244216+00:00", "meta": {"OBJECT_NAME": "IRIDIUM 33 DEB", "OBJECT_ID": "1997-051QE", "EPOCH": "2025-12-20T05:53:50.544096", "MEAN_MOTION": 14.99070362, "ECCENTRICITY": 0.0024356, "INCLINATION": 86.3597, "RA_OF_ASC_NODE": 349.2325, "ARG_OF_PERICENTER": 101.4609, "MEAN_ANOMALY": 258.9359, "EPHEMERIS_TYPE": 0, "CLASSIFICATION_TYPE": "U", "NORAD_CAT_ID": 35484, "ELEMENT_SET_NO": 999, "REV_AT_EPOCH": 62128, "BSTAR": 0.0017572, "MEAN_MOTION_DOT": 0.00021521, "MEAN_MOTION_DDOT": 0}, "tle": {"line1": "1 35484U 97051QE  25354.24572389  .00021521  00000+0  17572-2 0  9999", "line2": "2 35484  86.3597 349.2325 0024356 101.4609 258.9359 14.99070362621284"}}, "geometry": {"type": "Point", "coordinates": [168.613908730635, 0.6379801620036796]}}, {"type": "Feature", "properties": {"norad_id": 35488, "name": "IRIDIUM 33 DEB", "group": "iridium-33-debris", "lat": 25.86267139463998, "lon": 115.06194150528806, "alt_km": 633.9745453849509, "timestamp": "2025-12-21T11:31:43.244227+00:00", "meta": {"OBJECT_NAME": "IRIDIUM 33 DEB", "OBJECT_ID": "1997-051QJ", "EPOCH": "2025-12-18T06:44:16.731744", "MEAN_MOTION": 14.83196659, "ECCENTRICITY": 0.00291507, "INCLINATION": 86.3243, "RA_OF_ASC_NODE": 298.3231, "ARG_OF_PERICENTER": 24.8223, "MEAN_ANOMALY": 335.4395, "EPHEMERIS_TYPE": 0, "CLASSIFICATION_TYPE": "U", "NORAD_CAT_ID": 35488, "ELEMENT_SET_NO": 999, "REV_AT_EPOCH": 88348, "BSTAR": 0.0014098178, "MEAN_MOTION_DOT": 0.00011627, "MEAN_MOTION_DDOT": 0}, "tle": {"line1": "1 35488U 97051QJ  25352.28074921  .00011627  00000+0  14098-2 0  9990", "line2": "2 35488  86.3243 298.3231 0029150  24.8223 335.4395 14.83196659883487"}}, "geometry": {"type": "Point", "coordinates": [115.06194150528806, 25.86267139463998]}}, {"type": "Feature", "properties": {"norad_id": 35616, "name": "IRIDIUM 33 DEB", "group": "iridium-33-debris", "lat": -84.69658332931817, "lon": -61.6064245766641, "alt_km": 636.3930023610819, "timestamp": "2025-12-21T11:31:43.244238+00:00", "meta": {"OBJECT_NAME": "IRIDIUM 33 DEB", "OBJECT_ID": "1997-051QN", "EPOCH": "2025-12-19T06:26:26.767968", "MEAN_MOTION": 14.81969913, "ECCENTRICITY": 0.0011079, "INCLINATION": 86.3543, "RA_OF_ASC_NODE": 342.7845, "ARG_OF_PERICENTER": 141.4908, "MEAN_ANOMALY": 218.7107, "EPHEMERIS_TYPE": 0, "CLASSIFICATION_TYPE": "U", "NORAD_CAT_ID": 35616, "ELEMENT_SET_NO": 999, "REV_AT_EPOCH": 87671, "BSTAR": 0.0011657, "MEAN_MOTION_DOT": 9.278e-05, "MEAN_MOTION_DDOT": 0}, "tle": {"line1": "1 35616U 97051QN  25353.26836537  .00009278  00000+0  11657-2 0  9998", "line2": "2 35616  86.3543 342.7845 0011079 141.4908 218.7107 14.81969913876716"}}, "geometry": {"type": "Point", "coordinates": [-61.6064245766641, -84.69658332931817]}}, {"type": "Feature", "properties": {"norad_id": 35618, "name": "IRIDIUM 33 DEB", "group": "iridium-33-debris", "lat": -9.379608997356184, "lon": 170.2831087039082, "alt_km": 741.6991729019219, "timestamp": "2025-12-21T11:31:43.244248+00:00", "meta": {"OBJECT_NAME": "IRIDIUM 33 DEB", "OBJECT_ID": "1997-051QQ", "EPOCH": "2025-12-19T17:19:11.303040", "MEAN_MOTION": 14.52324389, "ECCENTRICITY": 0.0028534, "INCLINATION": 86.3402, "RA_OF_ASC_NODE": 350.4461, "ARG_OF_PERICENTER": 358.9008, "MEAN_ANOMALY": 1.213, "EPHEMERIS_TYPE": 0, "CLASSIFICATION_TYPE": "U", "NORAD_CAT_ID": 35618, "ELEMENT_SET_NO": 999, "REV_AT_EPOCH": 65495, "BSTAR": 0.00034507, "MEAN_MOTION_DOT": 1.431e-05, "MEAN_MOTION_DDOT": 0}, "tle": {"line1": "1 35618U 97051QQ  25353.72165860  .00001431  00000+0  34507-3 0  9998", "line2": "2 35618  86.3402 350.4461 0028534 358.9008   1.2130 14.52324389654953"}}, "geometry": {"type": "Point", "coordinates": [170.2831087039082, -9.379608997356184]}}, {"type": "Feature", "properties": {"norad_id": 35620, "name": "IRIDIUM 33 DEB", "group": "iridium-33-debris", "lat": 85.56606165039452, "lon": -91.74869611715641, "alt_km": 835.2333729020056, "timestamp": "2025-12-21T11:31:43.244259+00:00", "meta": {"OBJECT_NAME": "IRIDIUM 33 DEB", "OBJECT_ID": "1997-051QS", "EPOCH": "2025-12-18T07:58:30.597312", "MEAN_MOTION": 14.38231155, "ECCENTRICITY": 0.01396071, "INCLINATION": 86.3909, "RA_OF_ASC_NODE": 215.0948, "ARG_OF_PERICENTER": 240.37, "MEAN_ANOMALY": 118.3533, "EPHEMERIS_TYPE": 0, "CLASSIFICATION_TYPE": "U", "NORAD_CAT_ID": 35620, "ELEMENT_SET_NO": 999, "REV_AT_EPOCH": 60046, "BSTAR": 0.0042608437, "MEAN_MOTION_DOT": 0.00014532, "MEAN_MOTION_DDOT": 0}, "tle": {"line1": "1 35620U 97051QS  25352.33229858  .00014532  00000+0  42608-2 0  9991", "line2": "2 35620  86.3909 215.0948 0139607 240.3700 118.3533 14.38231155600467"}}, "geometry": {"type": "Point", "coordinates": [-91.74869611715641, 85.56606165039452]}}, {"type": "Feature", "properties": {"norad_id": 35622, "name": "IRIDIUM 33 DEB", "group": "iridium-33-debris", "lat": 61.15190951055966, "lon": 72.36889236979583, "alt_km": 547.0026927465551, "timestamp": "2025-12-21T11:31:43.244283+00:00", "meta": {"OBJECT_NAME": "IRIDIUM 33 DEB", "OBJECT_ID": "1997-051QU", "EPOCH": "2025-12-19T11:54:56.844000", "MEAN_MOTION": 15.05408021, "ECCENTRICITY": 0.0004407, "INCLINATION": 86.2028, "RA_OF_ASC_NODE": 260.2723, "ARG_OF_PERICENTER": 304.7604, "MEAN_ANOMALY": 228.959, "EPHEMERIS_TYPE": 0, "CLASSIFICATION_TYPE": "U", "NORAD_CAT_ID": 35622, "ELEMENT_SET_NO": 999, "REV_AT_EPOCH": 87461, "BSTAR": 0.0027287, "MEAN_MOTION_DOT": 0.00039327, "MEAN_MOTION_DDOT": 0}, "tle": {"line1": "1 35622U 97051QU  25353.49649125  .00039327  00000+0  27287-2 0  9999", "line2": "2 35622  86.2028 260.2723 0004407 304.7604 228.9590 15.05408021874614"}}, "geometry": {"type": "Point", "coordinates": [72.36889236979583, 61.15190951055966]}}, {"type": "Feature", "properties": {"norad_id": 35628, "name": "IRIDIUM 33 DEB", "group": "iridium-33-debris", "lat": -28.15992008249486, "lon": -172.8685051318712, "alt_km": 675.7882672654714, "timestamp": "2025-12-21T11:31:43.244296+00:00", "meta": {"OBJECT_NAME": "IRIDIUM 33 DEB", "OBJECT_ID": "1997-051RA", "EPOCH": "2025-12-20T06:45:55.793664", "MEAN_MOTION": 14.67680924, "ECCENTRICITY": 0.00096368, "INCLINATION": 86.3562, "RA_OF_ASC_NODE": 5.7112, "ARG_OF_PERICENTER": 314.2717, "MEAN_ANOMALY": 45.7705, "EPHEMERIS_TYPE": 0, "CLASSIFICATION_TYPE": "U", "NORAD_CAT_ID": 35628, "ELEMENT_SET_NO": 999, "REV_AT_EPOCH": 86557, "BSTAR": 0.00085133469, "MEAN_MOTION_DOT": 4.868e-05, "MEAN_MOTION_DDOT": 0}, "tle": {"line1": "1 35628U 97051RA  25354.28189576  .00004868  00000+0  85133-3 0  9999", "line2": "2 35628  86.3562   5.7112 0009636 314.2717  45.7705 14.67680924865577"}}, "geometry": {"type": "Point", "coordinates": [-172.8685051318712, -28.15992008249486]}}, {"type": "Feature", "properties": {"norad_id": 35631, "name": "IRIDIUM 33 DEB", "group": "iridium-33-debris", "lat": -6.156975169179008, "lon": -162.3952643545104, "alt_km": 739.2689942390944, "timestamp": "2025-12-21T11:31:43.244306+00:00", "meta": {"OBJECT_NAME": "IRIDIUM 33 DEB", "OBJECT_ID": "1997-051RD", "EPOCH": "2025-12-20T01:46:23.422080", "MEAN_MOTION": 14.47329545, "ECCENTRICITY": 0.00192479, "INCLINATION": 86.3662, "RA_OF_ASC_NODE": 17.8175, "ARG_OF_PERICENTER": 96.1931, "MEAN_ANOMALY": 326.0143, "EPHEMERIS_TYPE": 0, "CLASSIFICATION_TYPE": "U", "NORAD_CAT_ID": 35631, "ELEMENT_SET_NO": 999, "REV_AT_EPOCH": 87303, "BSTAR": 0.00024996785, "MEAN_MOTION_DOT": 9.37e-06, "MEAN_MOTION_DDOT": 0}, "tle": {"line1": "1 35631U 97051RD  25354.07388220  .00000937  00000+0  24997-3 0  9991", "line2": "2 35631  86.3662  17.8175 0019247  96.1931 326.0143 14.47329545873036"}}, "geometry": {"type": "Point", "coordinates": [-162.3952643545104, -6.156975169179008]}}, {"type": "Feature", "properties": {"norad_id": 35680, "name": "IRIDIUM 33 DEB", "group": "iridium-33-debris", "lat": 49.77414765083376, "lon": 22.276240943370606, "alt_km": 918.5574417379712, "timestamp": "2025-12-21T11:31:43.244317+00:00", "meta": {"OBJECT_NAME": "IRIDIUM 33 DEB", "OBJECT_ID": "1997-051RJ", "EPOCH": "2025-12-17T20:16:19.922592", "MEAN_MOTION": 14.21000805, "ECCENTRICITY": 0.01505036, "INCLINATION": 86.1025, "RA_OF_ASC_NODE": 19.2625, "ARG_OF_PERICENTER": 262.1515, "MEAN_ANOMALY": 279.7609, "EPHEMERIS_TYPE": 0, "CLASSIFICATION_TYPE": "U", "NORAD_CAT_ID": 35680, "ELEMENT_SET_NO": 999, "REV_AT_EPOCH": 60773, "BSTAR": 0.0028027984, "MEAN_MOTION_DOT": 6.829e-05, "MEAN_MOTION_DDOT": 0}, "tle": {"line1": "1 35680U 97051RJ  25351.84467503  .00006829  00000+0  28028-2 0  9993", "line2": "2 35680  86.1025  19.2625 0150503 262.1515 279.7609 14.21000805607731"}}, "geometry": {"type": "Point", "coordinates": [22.276240943370606, 49.77414765083376]}}]}